CCSDS_OMM_VERS = 2.0
CREATION_DATE  = 
ORIGINATOR     = 

OBJECT_NAME    = AQUA
OBJECT_ID      = 2002-022A
CENTER_NAME    = EARTH
REF_FRAME      = TEME
TIME_SYSTEM    = UTC
MEAN_ELEMENT_THEORY = SGP/SGP4

EPOCH          = 2026-03-17T06:57:24.513984
MEAN_MOTION    = 14.61995279
ECCENTRICITY   = .00006855
INCLINATION    = 98.4187
RA_OF_ASC_NODE = 43.7939
ARG_OF_PERICENTER = 107.5024
MEAN_ANOMALY   = 357.8777

EPHEMERIS_TYPE = 0
CLASSIFICATION_TYPE = U
NORAD_CAT_ID   = 27424
ELEMENT_SET_NO = 999
REV_AT_EPOCH   = 26984
BSTAR          = .19637627E-3
MEAN_MOTION_DOT = .935E-5
MEAN_MOTION_DDOT = 0

CCSDS_OMM_VERS = 2.0
CREATION_DATE  = 
ORIGINATOR     = 

OBJECT_NAME    = CZ-4B R/B
OBJECT_ID      = 2002-024C
CENTER_NAME    = EARTH
REF_FRAME      = TEME
TIME_SYSTEM    = UTC
MEAN_ELEMENT_THEORY = SGP/SGP4

EPOCH          = 2026-03-17T03:29:39.077088
MEAN_MOTION    = 14.14548891
ECCENTRICITY   = .00501176
INCLINATION    = 98.8822
RA_OF_ASC_NODE = 129.5141
ARG_OF_PERICENTER = 3.1185
MEAN_ANOMALY   = 55.9720

EPHEMERIS_TYPE = 0
CLASSIFICATION_TYPE = U
NORAD_CAT_ID   = 27432
ELEMENT_SET_NO = 999
REV_AT_EPOCH   = 23029
BSTAR          = .39642666E-4
MEAN_MOTION_DOT = .32E-6
MEAN_MOTION_DDOT = 0

CCSDS_OMM_VERS = 2.0
CREATION_DATE  = 
ORIGINATOR     = 

OBJECT_NAME    = MIDORI II (ADEOS-II)
OBJECT_ID      = 2002-056A
CENTER_NAME    = EARTH
REF_FRAME      = TEME
TIME_SYSTEM    = UTC
MEAN_ELEMENT_THEORY = SGP/SGP4

EPOCH          = 2026-03-17T03:42:01.860480
MEAN_MOTION    = 14.29290925
ECCENTRICITY   = .0001306
INCLINATION    = 98.7780
RA_OF_ASC_NODE = 34.6839
ARG_OF_PERICENTER = 34.0017
MEAN_ANOMALY   = 326.1248

EPHEMERIS_TYPE = 0
CLASSIFICATION_TYPE = U
NORAD_CAT_ID   = 27597
ELEMENT_SET_NO = 999
REV_AT_EPOCH   = 21136
BSTAR          = .12288664E-3
MEAN_MOTION_DOT = .267E-5
MEAN_MOTION_DDOT = 0

CCSDS_OMM_VERS = 2.0
CREATION_DATE  = 
ORIGINATOR     = 

OBJECT_NAME    = H-2A R/B
OBJECT_ID      = 2002-056E
CENTER_NAME    = EARTH
REF_FRAME      = TEME
TIME_SYSTEM    = UTC
MEAN_ELEMENT_THEORY = SGP/SGP4

EPOCH          = 2026-03-17T03:57:24.806880
MEAN_MOTION    = 14.33765609
ECCENTRICITY   = .00709247
INCLINATION    = 98.3215
RA_OF_ASC_NODE = 36.2464
ARG_OF_PERICENTER = 138.5664
MEAN_ANOMALY   = 232.7909

EPHEMERIS_TYPE = 0
CLASSIFICATION_TYPE = U
NORAD_CAT_ID   = 27601
ELEMENT_SET_NO = 999
REV_AT_EPOCH   = 21518
BSTAR          = .91635107E-4
MEAN_MOTION_DOT = .221E-5
MEAN_MOTION_DDOT = 0

CCSDS_OMM_VERS = 2.0
CREATION_DATE  = 
ORIGINATOR     = 

OBJECT_NAME    = CZ-4B R/B
OBJECT_ID      = 2003-049C
CENTER_NAME    = EARTH
REF_FRAME      = TEME
TIME_SYSTEM    = UTC
MEAN_ELEMENT_THEORY = SGP/SGP4

EPOCH          = 2026-03-17T05:21:10.803744
MEAN_MOTION    = 14.55027319
ECCENTRICITY   = .00475852
INCLINATION    = 98.6884
RA_OF_ASC_NODE = 71.4238
ARG_OF_PERICENTER = 207.5087
MEAN_ANOMALY   = 152.3590

EPHEMERIS_TYPE = 0
CLASSIFICATION_TYPE = U
NORAD_CAT_ID   = 28059
ELEMENT_SET_NO = 999
REV_AT_EPOCH   = 18769
BSTAR          = .86074063E-4
MEAN_MOTION_DOT = .325E-5
MEAN_MOTION_DDOT = 0

CCSDS_OMM_VERS = 2.0
CREATION_DATE  = 
ORIGINATOR     = 

OBJECT_NAME    = CZ-2C R/B
OBJECT_ID      = 2004-012C
CENTER_NAME    = EARTH
REF_FRAME      = TEME
TIME_SYSTEM    = UTC
MEAN_ELEMENT_THEORY = SGP/SGP4

EPOCH          = 2026-03-17T03:41:57.592320
MEAN_MOTION    = 15.65432625
ECCENTRICITY   = .00129377
INCLINATION    = 97.7217
RA_OF_ASC_NODE = 142.1581
ARG_OF_PERICENTER = 278.7323
MEAN_ANOMALY   = 81.2470

EPHEMERIS_TYPE = 0
CLASSIFICATION_TYPE = U
NORAD_CAT_ID   = 28222
ELEMENT_SET_NO = 999
REV_AT_EPOCH   = 20544
BSTAR          = .43723865E-3
MEAN_MOTION_DOT = .43829E-3
MEAN_MOTION_DDOT = 0

CCSDS_OMM_VERS = 2.0
CREATION_DATE  = 
ORIGINATOR     = 

OBJECT_NAME    = SL-16 R/B
OBJECT_ID      = 2004-021B
CENTER_NAME    = EARTH
REF_FRAME      = TEME
TIME_SYSTEM    = UTC
MEAN_ELEMENT_THEORY = SGP/SGP4

EPOCH          = 2026-03-17T02:15:19.154880
MEAN_MOTION    = 14.14594825
ECCENTRICITY   = .00044446
INCLINATION    = 70.9997
RA_OF_ASC_NODE = 216.9533
ARG_OF_PERICENTER = 359.7231
MEAN_ANOMALY   = 0.3888

EPHEMERIS_TYPE = 0
CLASSIFICATION_TYPE = U
NORAD_CAT_ID   = 28353
ELEMENT_SET_NO = 999
REV_AT_EPOCH   = 12388
BSTAR          = -.11723103E-3
MEAN_MOTION_DOT = -.273E-5
MEAN_MOTION_DDOT = 0

CCSDS_OMM_VERS = 2.0
CREATION_DATE  = 
ORIGINATOR     = 

OBJECT_NAME    = CZ-4B R/B
OBJECT_ID      = 2004-035C
CENTER_NAME    = EARTH
REF_FRAME      = TEME
TIME_SYSTEM    = UTC
MEAN_ELEMENT_THEORY = SGP/SGP4

EPOCH          = 2026-03-17T02:34:43.556448
MEAN_MOTION    = 15.29198366
ECCENTRICITY   = .00302745
INCLINATION    = 97.3489
RA_OF_ASC_NODE = 110.2614
ARG_OF_PERICENTER = 304.0396
MEAN_ANOMALY   = 55.7971

EPHEMERIS_TYPE = 0
CLASSIFICATION_TYPE = U
NORAD_CAT_ID   = 28415
ELEMENT_SET_NO = 999
REV_AT_EPOCH   = 18104
BSTAR          = .22824113E-3
MEAN_MOTION_DOT = .6478E-4
MEAN_MOTION_DDOT = 0

CCSDS_OMM_VERS = 2.0
CREATION_DATE  = 
ORIGINATOR     = 

OBJECT_NAME    = CZ-2C R/B
OBJECT_ID      = 2004-046B
CENTER_NAME    = EARTH
REF_FRAME      = TEME
TIME_SYSTEM    = UTC
MEAN_ELEMENT_THEORY = SGP/SGP4

EPOCH          = 2026-03-17T04:46:01.435008
MEAN_MOTION    = 14.26994751
ECCENTRICITY   = .01402936
INCLINATION    = 98.1981
RA_OF_ASC_NODE = 350.7150
ARG_OF_PERICENTER = 132.3349
MEAN_ANOMALY   = 228.9818

EPHEMERIS_TYPE = 0
CLASSIFICATION_TYPE = U
NORAD_CAT_ID   = 28480
ELEMENT_SET_NO = 999
REV_AT_EPOCH   = 10957
BSTAR          = .60184164E-4
MEAN_MOTION_DOT = .123E-5
MEAN_MOTION_DDOT = 0

CCSDS_OMM_VERS = 2.0
CREATION_DATE  = 
ORIGINATOR     = 

OBJECT_NAME    = ARIANE 5 R/B
OBJECT_ID      = 2004-049H
CENTER_NAME    = EARTH
REF_FRAME      = TEME
TIME_SYSTEM    = UTC
MEAN_ELEMENT_THEORY = SGP/SGP4

EPOCH          = 2026-03-17T04:16:07.509216
MEAN_MOTION    = 14.85279591
ECCENTRICITY   = .00834129
INCLINATION    = 98.2639
RA_OF_ASC_NODE = 244.9158
ARG_OF_PERICENTER = 327.5301
MEAN_ANOMALY   = 32.0797

EPHEMERIS_TYPE = 0
CLASSIFICATION_TYPE = U
NORAD_CAT_ID   = 28499
ELEMENT_SET_NO = 999
REV_AT_EPOCH   = 14690
BSTAR          = .85250027E-4
MEAN_MOTION_DOT = .713E-5
MEAN_MOTION_DDOT = 0

CCSDS_OMM_VERS = 2.0
CREATION_DATE  = 
ORIGINATOR     = 

OBJECT_NAME    = CZ-2D R/B
OBJECT_ID      = 2005-024B
CENTER_NAME    = EARTH
REF_FRAME      = TEME
TIME_SYSTEM    = UTC
MEAN_ELEMENT_THEORY = SGP/SGP4

EPOCH          = 2026-03-17T00:28:09.754176
MEAN_MOTION    = 15.60834466
ECCENTRICITY   = .00045837
INCLINATION    = 97.3588
RA_OF_ASC_NODE = 91.4380
ARG_OF_PERICENTER = 26.9008
MEAN_ANOMALY   = 333.2486

EPHEMERIS_TYPE = 0
CLASSIFICATION_TYPE = U
NORAD_CAT_ID   = 28738
ELEMENT_SET_NO = 999
REV_AT_EPOCH   = 14092
BSTAR          = .45627787E-3
MEAN_MOTION_DOT = .38065E-3
MEAN_MOTION_DDOT = 0

CCSDS_OMM_VERS = 2.0
CREATION_DATE  = 
ORIGINATOR     = 

OBJECT_NAME    = ALOS (DAICHI)
OBJECT_ID      = 2006-002A
CENTER_NAME    = EARTH
REF_FRAME      = TEME
TIME_SYSTEM    = UTC
MEAN_ELEMENT_THEORY = SGP/SGP4

EPOCH          = 2026-03-17T03:03:33.499584
MEAN_MOTION    = 14.69834120
ECCENTRICITY   = .00007234
INCLINATION    = 98.1230
RA_OF_ASC_NODE = 32.0461
ARG_OF_PERICENTER = 73.2458
MEAN_ANOMALY   = 286.8827

EPHEMERIS_TYPE = 0
CLASSIFICATION_TYPE = U
NORAD_CAT_ID   = 28931
ELEMENT_SET_NO = 999
REV_AT_EPOCH   = 7457
BSTAR          = .21417326E-3
MEAN_MOTION_DOT = .123E-4
MEAN_MOTION_DDOT = 0

