AQUA                    
1 27424U 02022A   26076.28986706  .00000935  00000+0  19638-3 0  9998
2 27424  98.4187  43.7939 0000685 107.5024 357.8777 14.61995279269847
CZ-4B R/B               
1 27432U 02024C   26076.14559117  .00000032  00000+0  39643-4 0  9993
2 27432  98.8822 129.5141 0050117   3.1185  55.9720 14.14548891230291
MIDORI II (ADEOS-II)    
1 27597U 02056A   26076.15418820  .00000267  00000+0  12289-3 0  9992
2 27597  98.7780  34.6839 0001306  34.0017 326.1248 14.29290925211361
H-2A R/B                
1 27601U 02056E   26076.16487045  .00000221  00000+0  91635-4 0  9997
2 27601  98.3215  36.2464 0070924 138.5664 232.7909 14.33765609215189
CZ-4B R/B               
1 28059U 03049C   26076.22304171  .00000325  00000+0  86074-4 0  9999
2 28059  98.6884  71.4238 0047585 207.5087 152.3590 14.55027319187695
CZ-2C R/B               
1 28222U 04012C   26076.15413880  .00043829  00000+0  43724-3 0  9992
2 28222  97.7217 142.1581 0012937 278.7323  81.2470 15.65432625205443
SL-16 R/B               
1 28353U 04021B   26076.09397170 -.00000273  00000+0 -11723-3 0  9995
2 28353  70.9997 216.9533 0004444 359.7231   0.3888 14.14594825123881
CZ-4B R/B               
1 28415U 04035C   26076.10744857  .00006478  00000+0  22824-3 0  9994
2 28415  97.3489 110.2614 0030274 304.0396  55.7971 15.29198366181046
CZ-2C R/B               
1 28480U 04046B   26076.19862772  .00000123  00000+0  60184-4 0  9997
2 28480  98.1981 350.7150 0140293 132.3349 228.9818 14.26994751109573
ARIANE 5 R/B            
1 28499U 04049H   26076.17786469  .00000713  00000+0  85250-4 0  9992
2 28499  98.2639 244.9158 0083412 327.5301  32.0797 14.85279591146902
CZ-2D R/B               
1 28738U 05024B   26076.01955734  .00038065  00000+0  45628-3 0  9993
2 28738  97.3588  91.4380 0004583  26.9008 333.2486 15.60834466140928
ALOS (DAICHI)           
1 28931U 06002A   26076.12747106  .00001230  00000+0  21417-3 0  9993
2 28931  98.1230  32.0461 0000723  73.2458 286.8827 14.69834120 74577
